{"type": "FeatureCollection", "features": [ {"type": "Feature", "properties": {"norad_id": 58662, "name": "TIANMU-1 21", "group": "weather", "lat": 64.11826404778536, "lon": -72.56047787073948, "alt_km": 469.8721597814092, "timestamp": "2025-12-04T10:51:49.749935+00:00", "meta": {"OBJECT_NAME": "TIANMU-1 21", "OBJECT_ID": "2023-208C", "EPOCH": "2025-12-03T23:23:07.882656", "MEAN_MOTION": 15.31256121, "ECCENTRICITY": 0.00059665, "INCLINATION": 97.438, "RA_OF_ASC_NODE": 91.3391, "ARG_OF_PERICENTER": 297.0599, "MEAN_ANOMALY": 63.0033, "EPHEMERIS_TYPE": 0, "CLASSIFICATION_TYPE": "U", "NORAD_CAT_ID": 58662, "ELEMENT_SET_NO": 999, "REV_AT_EPOCH": 10765, "BSTAR": 0.00066310728, "MEAN_MOTION_DOT": 0.00019981, "MEAN_MOTION_DDOT": 0}, "tle": {"line1": "1 58662U 23208C   25337.97439679  .00019981  00000+0  66311-3 0  9993", "line2": "2 58662  97.4380  91.3391 0005966 297.0599  63.0033 15.31256121107654"}}, "geometry": {"type": "Point", "coordinates": [-72.56047787073948, 64.11826404778536]}}, {"type": "Feature", "properties": {"norad_id": 58663, "name": "TIANMU-1 22", "group": "weather", "lat": 25.848258241086683, "lon": -86.80028529740463, "alt_km": 484.9331397598089, "timestamp": "2025-12-04T10:51:49.749945+00:00", "meta": {"OBJECT_NAME": "TIANMU-1 22", "OBJECT_ID": "2023-208D", "EPOCH": "2025-12-03T23:11:10.158720", "MEAN_MOTION": 15.27367861, "ECCENTRICITY": 0.00030293, "INCLINATION": 97.4388, "RA_OF_ASC_NODE": 89.0854, "ARG_OF_PERICENTER": 328.7171, "MEAN_ANOMALY": 31.3888, "EPHEMERIS_TYPE": 0, "CLASSIFICATION_TYPE": "U", "NORAD_CAT_ID": 58663, "ELEMENT_SET_NO": 999, "REV_AT_EPOCH": 10749, "BSTAR": 0.00059177511, "MEAN_MOTION_DOT": 0.00015803, "MEAN_MOTION_DDOT": 0}, "tle": {"line1": "1 58663U 23208D   25337.96608980  .00015803  00000+0  59178-3 0  9998", "line2": "2 58663  97.4388  89.0854 0003029 328.7171  31.3888 15.27367861107494"}}, "geometry": {"type": "Point", "coordinates": [-86.80028529740463, 25.848258241086683]}}, {"type": "Feature", "properties": {"norad_id": 58700, "name": "TIANMU-1 15", "group": "weather", "lat": 9.482117543812945, "lon": 158.69764709257518, "alt_km": 490.9156235062601, "timestamp": "2025-12-04T10:51:49.749955+00:00", "meta": {"OBJECT_NAME": "TIANMU-1 15", "OBJECT_ID": "2024-004A", "EPOCH": "2025-12-04T04:31:15.128256", "MEAN_MOTION": 15.24501037, "ECCENTRICITY": 0.000574, "INCLINATION": 97.4624, "RA_OF_ASC_NODE": 159.6889, "ARG_OF_PERICENTER": 332.871, "MEAN_ANOMALY": 27.2227, "EPHEMERIS_TYPE": 0, "CLASSIFICATION_TYPE": "U", "NORAD_CAT_ID": 58700, "ELEMENT_SET_NO": 999, "REV_AT_EPOCH": 10604, "BSTAR": 0.00061721, "MEAN_MOTION_DOT": 0.00015126, "MEAN_MOTION_DDOT": 0}, "tle": {"line1": "1 58700U 24004A   25338.18836954  .00015126  00000+0  61721-3 0  9999", "line2": "2 58700  97.4624 159.6889 0005740 332.8710  27.2227 15.24501037106041"}}, "geometry": {"type": "Point", "coordinates": [158.69764709257518, 9.482117543812945]}}, {"type": "Feature", "properties": {"norad_id": 58701, "name": "TIANMU-1 16", "group": "weather", "lat": 78.48583644248995, "lon": 19.36560744650661, "alt_km": 487.9365556835364, "timestamp": "2025-12-04T10:51:49.749965+00:00", "meta": {"OBJECT_NAME": "TIANMU-1 16", "OBJECT_ID": "2024-004B", "EPOCH": "2025-12-02T23:46:09.262272", "MEAN_MOTION": 15.24215807, "ECCENTRICITY": 0.00050547, "INCLINATION": 97.4572, "RA_OF_ASC_NODE": 157.8955, "ARG_OF_PERICENTER": 336.3217, "MEAN_ANOMALY": 23.7787, "EPHEMERIS_TYPE": 0, "CLASSIFICATION_TYPE": "U", "NORAD_CAT_ID": 58701, "ELEMENT_SET_NO": 999, "REV_AT_EPOCH": 10586, "BSTAR": 6.5908855e-05, "MEAN_MOTION_DOT": 1.535e-05, "MEAN_MOTION_DDOT": 0}, "tle": {"line1": "1 58701U 24004B   25336.99038498  .00001535  00000+0  65909-4 0  9996", "line2": "2 58701  97.4572 157.8955 0005054 336.3217  23.7787 15.24215807105865"}}, "geometry": {"type": "Point", "coordinates": [19.36560744650661, 78.48583644248995]}}, {"type": "Feature", "properties": {"norad_id": 58702, "name": "TIANMU-1 17", "group": "weather", "lat": -2.0943859968377714, "lon": -20.518337848514758, "alt_km": 498.8308365480434, "timestamp": "2025-12-04T10:51:49.749977+00:00", "meta": {"OBJECT_NAME": "TIANMU-1 17", "OBJECT_ID": "2024-004C", "EPOCH": "2025-12-04T05:20:28.428864", "MEAN_MOTION": 15.24299843, "ECCENTRICITY": 0.0004237, "INCLINATION": 97.4596, "RA_OF_ASC_NODE": 159.5272, "ARG_OF_PERICENTER": 335.954, "MEAN_ANOMALY": 24.1499, "EPHEMERIS_TYPE": 0, "CLASSIFICATION_TYPE": "U", "NORAD_CAT_ID": 58702, "ELEMENT_SET_NO": 999, "REV_AT_EPOCH": 10604, "BSTAR": 0.00058716, "MEAN_MOTION_DOT": 0.00014295, "MEAN_MOTION_DDOT": 0}, "tle": {"line1": "1 58702U 24004C   25338.22255126  .00014295  00000+0  58716-3 0  9998", "line2": "2 58702  97.4596 159.5272 0004237 335.9540  24.1499 15.24299843106047"}}, "geometry": {"type": "Point", "coordinates": [-20.518337848514758, -2.0943859968377714]}}, {"type": "Feature", "properties": {"norad_id": 58703, "name": "TIANMU-1 18", "group": "weather", "lat": -81.62981517623446, "lon": -137.0858894962083, "alt_km": 499.09487758659907, "timestamp": "2025-12-04T10:51:49.749988+00:00", "meta": {"OBJECT_NAME": "TIANMU-1 18", "OBJECT_ID": "2024-004D", "EPOCH": "2025-12-04T04:56:21.585696", "MEAN_MOTION": 15.24290863, "ECCENTRICITY": 0.0003641, "INCLINATION": 97.4613, "RA_OF_ASC_NODE": 159.704, "ARG_OF_PERICENTER": 336.9359, "MEAN_ANOMALY": 23.1714, "EPHEMERIS_TYPE": 0, "CLASSIFICATION_TYPE": "U", "NORAD_CAT_ID": 58703, "ELEMENT_SET_NO": 999, "REV_AT_EPOCH": 10604, "BSTAR": 0.00060118, "MEAN_MOTION_DOT": 0.00014634, "MEAN_MOTION_DDOT": 0}, "tle": {"line1": "1 58703U 24004D   25338.20580539  .00014634  00000+0  60118-3 0  9992", "line2": "2 58703  97.4613 159.7040 0003641 336.9359  23.1714 15.24290863106042"}}, "geometry": {"type": "Point", "coordinates": [-137.0858894962083, -81.62981517623446]}}, {"type": "Feature", "properties": {"norad_id": 58990, "name": "INSAT-3DS", "group": "weather", "lat": -0.0038982451021610893, "lon": -41.443935215210736, "alt_km": 35783.03762141047, "timestamp": "2025-12-04T10:51:49.750000+00:00", "meta": {"OBJECT_NAME": "INSAT-3DS", "OBJECT_ID": "2024-033A", "EPOCH": "2025-12-03T20:14:15.823680", "MEAN_MOTION": 1.00268816, "ECCENTRICITY": 0.00017747, "INCLINATION": 0.013, "RA_OF_ASC_NODE": 325.7109, "ARG_OF_PERICENTER": 294.1974, "MEAN_ANOMALY": 198.6664, "EPHEMERIS_TYPE": 0, "CLASSIFICATION_TYPE": "U", "NORAD_CAT_ID": 58990, "ELEMENT_SET_NO": 999, "REV_AT_EPOCH": 4511, "BSTAR": 0, "MEAN_MOTION_DOT": 0, "MEAN_MOTION_DDOT": 0}, "tle": {"line1": "1 58990U 24033A   25337.84323870  .00000000  00000+0  00000+0 0  9996", "line2": "2 58990   0.0130 325.7109 0001774 294.1974 198.6664  1.00268816 45112"}}, "geometry": {"type": "Point", "coordinates": [-41.443935215210736, -0.0038982451021610893]}}, {"type": "Feature", "properties": {"norad_id": 59051, "name": "METEOR-M2 4", "group": "weather", "lat": -64.46903006798073, "lon": 96.85007047374543, "alt_km": 828.2950133477943, "timestamp": "2025-12-04T10:51:49.750011+00:00", "meta": {"OBJECT_NAME": "METEOR-M2 4", "OBJECT_ID": "2024-039A", "EPOCH": "2025-12-03T23:34:54.758208", "MEAN_MOTION": 14.22399136, "ECCENTRICITY": 0.00075064, "INCLINATION": 98.6753, "RA_OF_ASC_NODE": 295.0293, "ARG_OF_PERICENTER": 22.846, "MEAN_ANOMALY": 337.305, "EPHEMERIS_TYPE": 0, "CLASSIFICATION_TYPE": "U", "NORAD_CAT_ID": 59051, "ELEMENT_SET_NO": 999, "REV_AT_EPOCH": 9151, "BSTAR": 5.7122378e-05, "MEAN_MOTION_DOT": 8.4e-07, "MEAN_MOTION_DDOT": 0}, "tle": {"line1": "1 59051U 24039A   25337.98257822  .00000084  00000+0  57122-4 0  9993", "line2": "2 59051  98.6753 295.0293 0007506  22.8460 337.3050 14.22399136 91517"}}, "geometry": {"type": "Point", "coordinates": [96.85007047374543, -64.46903006798073]}}, {"type": "Feature", "properties": {"norad_id": 60133, "name": "GOES 19", "group": "weather", "lat": 0.001269743186707346, "lon": 161.2705599527158, "alt_km": 35790.51199346115, "timestamp": "2025-12-04T10:51:49.750022+00:00", "meta": {"OBJECT_NAME": "GOES 19", "OBJECT_ID": "2024-119A", "EPOCH": "2025-12-03T13:23:52.774944", "MEAN_MOTION": 1.00270855, "ECCENTRICITY": 0.00013381, "INCLINATION": 0.0059, "RA_OF_ASC_NODE": 37.8356, "ARG_OF_PERICENTER": 260.173, "MEAN_ANOMALY": 260.4283, "EPHEMERIS_TYPE": 0, "CLASSIFICATION_TYPE": "U", "NORAD_CAT_ID": 60133, "ELEMENT_SET_NO": 999, "REV_AT_EPOCH": 500, "BSTAR": 0, "MEAN_MOTION_DOT": -2.3e-06, "MEAN_MOTION_DDOT": 0}, "tle": {"line1": "1 60133U 24119A   25337.55824971 -.00000230  00000+0  00000+0 0  9995", "line2": "2 60133   0.0059  37.8356 0001338 260.1730 260.4283  1.00270855  5003"}}, "geometry": {"type": "Point", "coordinates": [161.2705599527158, 0.001269743186707346]}}, {"type": "Feature", "properties": {"norad_id": 65815, "name": "FENGYUN 3H", "group": "weather", "lat": -19.11764143287672, "lon": 95.19622390614946, "alt_km": 831.0142158032904, "timestamp": "2025-12-04T10:51:49.750033+00:00", "meta": {"OBJECT_NAME": "FENGYUN 3H", "OBJECT_ID": "2025-219A", "EPOCH": "2025-12-03T18:42:27.189504", "MEAN_MOTION": 14.19900487, "ECCENTRICITY": 6.277e-05, "INCLINATION": 98.657, "RA_OF_ASC_NODE": 277.565, "ARG_OF_PERICENTER": 71.8149, "MEAN_ANOMALY": 288.3095, "EPHEMERIS_TYPE": 0, "CLASSIFICATION_TYPE": "U", "NORAD_CAT_ID": 65815, "ELEMENT_SET_NO": 999, "REV_AT_EPOCH": 965, "BSTAR": 9.1708595e-05, "MEAN_MOTION_DOT": 1.51e-06, "MEAN_MOTION_DDOT": 0}, "tle": {"line1": "1 65815U 25219A   25337.77948136  .00000151  00000+0  91709-4 0  9995", "line2": "2 65815  98.6570 277.5650 0000627  71.8149 288.3095 14.19900487  9657"}}, "geometry": {"type": "Point", "coordinates": [95.19622390614946, -19.11764143287672]}}]}